[{"OBJECT_NAME":"STARLINK-1470","OBJECT_ID":"2020-038AU","EPOCH":"2026-03-09T14:36:51.476832","MEAN_MOTION":15.2807486,"ECCENTRICITY":0.0002444,"INCLINATION":53.048,"RA_OF_ASC_NODE":174.6971,"ARG_OF_PERICENTER":12.8687,"MEAN_ANOMALY":347.2373,"EPHEMERIS_TYPE":0,"CLASSIFICATION_TYPE":"U","NORAD_CAT_ID":45772,"ELEMENT_SET_NO":999,"REV_AT_EPOCH":31706,"BSTAR":0.0019687,"MEAN_MOTION_DOT":0.00054678,"MEAN_MOTION_DDOT":0},{"OBJECT_NAME":"STARLINK-32094","OBJECT_ID":"2024-086Q","EPOCH":"2026-03-09T09:29:56.367456","MEAN_MOTION":15.27575061,"ECCENTRICITY":8.278e-5,"INCLINATION":43.0013,"RA_OF_ASC_NODE":61.8558,"ARG_OF_PERICENTER":278.2145,"MEAN_ANOMALY":81.8613,"EPHEMERIS_TYPE":0,"CLASSIFICATION_TYPE":"U","NORAD_CAT_ID":59696,"ELEMENT_SET_NO":999,"REV_AT_EPOCH":10406,"BSTAR":-3.5418961e-5,"MEAN_MOTION_DOT":-1.236e-5,"MEAN_MOTION_DDOT":0}]
